ONEWEB-0063             
1 45448U 20020AA  24034.50261271  .00000539  00000+0  14837-2 0  9997
2 45448  87.8986 192.9319 0001241 110.2388 249.8873 13.11414572189365
ONEWEB-0019             
1 45449U 20020AB  24034.47663367 -.00000221  00000+0 -65894-3 0  9996
2 45449  87.8990 192.9342 0001398  93.3911 266.7377 13.11419019189204
ONEWEB-0094             
1 45450U 20020AC  24034.46857006  .00000115  00000+0  26207-3 0  9997
2 45450  87.9237 177.8133 0001619 103.7462 256.3849 13.17651306192435
ONEWEB-0087             
1 45451U 20020AD  24034.81428965  .00000520  00000+0  14315-2 0  9991
2 45451  87.8980 192.8489 0001747 108.0556 252.0762 13.11415166189300
ONEWEB-0082             
1 45452U 20020AE  24034.81592026  .00000493  00000+0  13556-2 0  9997
2 45452  87.8985 192.8464 0001527  96.0909 264.0393 13.11415216189391
ONEWEB-0050             
1 45453U 20020AF  24034.56908293  .00003474  00000+0  26920-3 0  9999
2 45453  87.9976  62.2545 0023061 182.6802 177.4313 15.00931261211583
ONEWEB-0034             
1 45454U 20020AG  24034.45391546  .00000825  00000+0  22928-2 0  9995
2 45454  87.8981 192.9354 0001788 103.0294 257.1034 13.11412853189257
ONEWEB-0060             
1 45455U 20020AH  24034.46200881 -.00000472  00000+0 -13689-2 0  9992
2 45455  87.8988 192.9301 0001602 105.6236 254.5069 13.11415664189214
